ONEWEB-0528             
1 54643U 22166B   23320.31914773  .00000489  00000+0  11533-2 0  9999
2 54643  87.9250  71.8737 0001601  96.2175 263.9141 13.21826615 46850
ONEWEB-0539             
1 54644U 22166C   23320.35543050  .00000109  00000+0  23230-3 0  9997
2 54644  87.9249  71.8660 0001771  94.0543 266.0793 13.21826791 46859
ONEWEB-0540             
1 54645U 22166D   23320.34989063  .00000146  00000+0  32262-3 0  9991
2 54645  87.9250  71.8934 0001750  90.3436 269.7898 13.21824775 46848
ONEWEB-0542             
1 54646U 22166E   23320.36487962 -.00000016  00000+0 -69490-4 0  9997
2 54646  87.9252  71.8648 0002187  92.3489 267.7896 13.21826147 46850
ONEWEB-0545             
1 54647U 22166F   23320.33175309 -.00000217  00000+0 -55748-3 0  9997
2 54647  87.9250  71.9117 0001877  83.2061 276.9286 13.21825609 46814
ONEWEB-0580             
1 54648U 22166G   23320.38065178 -.00000054  00000+0 -16285-3 0  9997
2 54648  87.9243  71.8556 0002243  90.7294 269.4097 13.21827600 46867
ONEWEB-0582             
1 54649U 22166H   23320.34754349  .00003135  00000+0  75595-2 0  9998
2 54649  87.9255  71.9040 0001387  87.2663 272.8629 13.21808679 46830
ONEWEB-0583             
1 54650U 22166J   23320.35856301  .00000115  00000+0  24709-3 0  9999
2 54650  87.9257  71.9088 0001673 114.2441 245.8868 13.21826436 46846
